IRIDIUM 150             
1 43257U 18030J   25037.37304998  .00000668  00000+0  23162-3 0  9999
2 43257  86.4013 137.7595 0002282  94.1683 265.9773 14.34219298359095
IRIDIUM 143             
1 43258U 18030K   25037.35402129  .00000271  00000+0  89690-4 0  9992
2 43258  86.4017 137.8409 0002594  93.4767 266.6726 14.34218897359029
IRIDIUM 161             
1 43478U 18047C   25036.96817958  .00000824  00000+0  23899-3 0  9992
2 43478  86.4489 295.8313 0002072  84.3441 275.7996 14.43283969353569
IRIDIUM 152             
1 43479U 18047D   25037.25696750  .00000483  00000+0  16556-3 0  9994
2 43479  86.3965 295.5703 0002031  86.3284 273.8144 14.34220591351407
IRIDIUM 147             
1 43480U 18047E   25036.42609008  .00000553  00000+0  19043-3 0  9996
2 43480  86.3971 295.9138 0002127  79.6099 280.5336 14.34213773351285
IRIDIUM 110             
1 43481U 18047F   25037.61849821  .00000606  00000+0  20918-3 0  9990
2 43481  86.3965 295.4946 0001757  94.2045 265.9351 14.34219200351446
IRIDIUM 162             
1 43482U 18047G   25036.68457499  .00000806  00000+0  23358-3 0  9996
2 43482  86.4487 295.8468 0002063  90.2471 269.8967 14.43276909353515
IRIDIUM 160             
1 43569U 18061A   25037.63410343  .00000515  00000+0  17675-3 0  9993
2 43569  86.3928 263.8402 0001852  88.4779 271.6629 14.34218328342344
